CZ-12 R/B               
1 67531U 26013K   26029.54311800  .00000271  00000+0  21651-3 0  9992
2 67531  49.9902 142.8353 0069060 163.0056 197.3188 14.14454871  1440
STARLINK-36587          
1 67532U 26014A   26032.91668981 -.01442632  00000+0 -67048-2 0  9997
2 67532  97.2825 275.9642 0001142  93.4776 284.4161 15.86246225  2938
STARLINK-36417          
1 67533U 26014B   26032.91668981 -.01440875  00000+0 -66687-2 0  9993
2 67533  97.2824 275.9650 0001231  95.3736 284.8762 15.86326643  2937
STARLINK-36576          
1 67534U 26014C   26032.91668981 -.01443717  00000+0 -66315-2 0  9990
2 67534  97.2824 275.9667 0001217  98.1590 286.1372 15.86487049  2939
STARLINK-36574          
1 67535U 26014D   26032.91668981 -.01438200  00000+0 -65283-2 0  9995
2 67535  97.2825 275.9691 0001098  91.8951 298.1727 15.86717893  2936
STARLINK-36572          
1 67536U 26014E   26032.91668981 -.01434104  00000+0 -64394-2 0  9997
2 67536  97.2823 275.9714 0001133  85.7480 309.6552 15.86928987  2932
STARLINK-36561          
1 67537U 26014F   26032.91668981 -.01432617  00000+0 -63784-2 0  9997
2 67537  97.2817 275.9727 0001166  86.7760 312.9422 15.87097101  2937
STARLINK-36397          
1 67538U 26014G   26032.91668981 -.01433695  00000+0 -63367-2 0  9992
2 67538  97.2814 275.9740 0001217  96.1218 307.4064 15.87246469  2934
STARLINK-36573          
1 67539U 26014H   26032.91668981 -.01431479  00000+0 -62671-2 0  9998
2 67539  97.2814 275.9761 0001167  96.7962 311.4936 15.87434153  2936
STARLINK-36585          
1 67540U 26014J   26032.91668981 -.01425305  00000+0 -61872-2 0  9993
2 67540  97.2809 275.9773 0001197  90.2684 322.1232 15.87592048  2934
STARLINK-36579          
1 67541U 26014K   26032.91668981 -.01429089  00000+0 -61373-2 0  9993
2 67541  97.2810 275.9800 0001184  81.1730 336.7097 15.87816048  2934
STARLINK-35934          
1 67542U 26014L   26032.91668981 -.01426945  00000+0 -60515-2 0  9999
2 67542  97.2807 275.9825 0001261  76.4941 347.4585 15.88062859  2929
