CCSDS_OMM_VERS = 2.0
CREATION_DATE  = 
ORIGINATOR     = 

OBJECT_NAME    = CZ-12 R/B
OBJECT_ID      = 2026-013K
CENTER_NAME    = EARTH
REF_FRAME      = TEME
TIME_SYSTEM    = UTC
MEAN_ELEMENT_THEORY = SGP/SGP4

EPOCH          = 2026-01-29T13:02:05.395200
MEAN_MOTION    = 14.14454871
ECCENTRICITY   = .00690603
INCLINATION    = 49.9902
RA_OF_ASC_NODE = 142.8353
ARG_OF_PERICENTER = 163.0056
MEAN_ANOMALY   = 197.3188

EPHEMERIS_TYPE = 0
CLASSIFICATION_TYPE = U
NORAD_CAT_ID   = 67531
ELEMENT_SET_NO = 999
REV_AT_EPOCH   = 144
BSTAR          = .21650671E-3
MEAN_MOTION_DOT = .271E-5
MEAN_MOTION_DDOT = 0

CCSDS_OMM_VERS = 2.0
CREATION_DATE  = 
ORIGINATOR     = 

OBJECT_NAME    = STARLINK-36587
OBJECT_ID      = 2026-014A
CENTER_NAME    = EARTH
REF_FRAME      = TEME
TIME_SYSTEM    = UTC
MEAN_ELEMENT_THEORY = SGP/SGP4

EPOCH          = 2026-02-01T22:00:01.999584
MEAN_MOTION    = 15.86246225
ECCENTRICITY   = .00011427
INCLINATION    = 97.2825
RA_OF_ASC_NODE = 275.9642
ARG_OF_PERICENTER = 93.4776
MEAN_ANOMALY   = 284.4161

EPHEMERIS_TYPE = 0
CLASSIFICATION_TYPE = U
NORAD_CAT_ID   = 67532
ELEMENT_SET_NO = 999
REV_AT_EPOCH   = 293
BSTAR          = -.6704804E-2
MEAN_MOTION_DOT = -.1442632E-1
MEAN_MOTION_DDOT = 0

CCSDS_OMM_VERS = 2.0
CREATION_DATE  = 
ORIGINATOR     = 

OBJECT_NAME    = STARLINK-36417
OBJECT_ID      = 2026-014B
CENTER_NAME    = EARTH
REF_FRAME      = TEME
TIME_SYSTEM    = UTC
MEAN_ELEMENT_THEORY = SGP/SGP4

EPOCH          = 2026-02-01T22:00:01.999584
MEAN_MOTION    = 15.86326643
ECCENTRICITY   = .00012316
INCLINATION    = 97.2824
RA_OF_ASC_NODE = 275.9650
ARG_OF_PERICENTER = 95.3736
MEAN_ANOMALY   = 284.8762

EPHEMERIS_TYPE = 0
CLASSIFICATION_TYPE = U
NORAD_CAT_ID   = 67533
ELEMENT_SET_NO = 999
REV_AT_EPOCH   = 293
BSTAR          = -.66686671E-2
MEAN_MOTION_DOT = -.1440875E-1
MEAN_MOTION_DDOT = 0

CCSDS_OMM_VERS = 2.0
CREATION_DATE  = 
ORIGINATOR     = 

OBJECT_NAME    = STARLINK-36576
OBJECT_ID      = 2026-014C
CENTER_NAME    = EARTH
REF_FRAME      = TEME
TIME_SYSTEM    = UTC
MEAN_ELEMENT_THEORY = SGP/SGP4

EPOCH          = 2026-02-01T22:00:01.999584
MEAN_MOTION    = 15.86487049
ECCENTRICITY   = .00012174
INCLINATION    = 97.2824
RA_OF_ASC_NODE = 275.9667
ARG_OF_PERICENTER = 98.1590
MEAN_ANOMALY   = 286.1372

EPHEMERIS_TYPE = 0
CLASSIFICATION_TYPE = U
NORAD_CAT_ID   = 67534
ELEMENT_SET_NO = 999
REV_AT_EPOCH   = 293
BSTAR          = -.6631502E-2
MEAN_MOTION_DOT = -.1443717E-1
MEAN_MOTION_DDOT = 0

CCSDS_OMM_VERS = 2.0
CREATION_DATE  = 
ORIGINATOR     = 

OBJECT_NAME    = STARLINK-36574
OBJECT_ID      = 2026-014D
CENTER_NAME    = EARTH
REF_FRAME      = TEME
TIME_SYSTEM    = UTC
MEAN_ELEMENT_THEORY = SGP/SGP4

EPOCH          = 2026-02-01T22:00:01.999584
MEAN_MOTION    = 15.86717893
ECCENTRICITY   = .00010987
INCLINATION    = 97.2825
RA_OF_ASC_NODE = 275.9691
ARG_OF_PERICENTER = 91.8951
MEAN_ANOMALY   = 298.1727

EPHEMERIS_TYPE = 0
CLASSIFICATION_TYPE = U
NORAD_CAT_ID   = 67535
ELEMENT_SET_NO = 999
REV_AT_EPOCH   = 293
BSTAR          = -.65282663E-2
MEAN_MOTION_DOT = -.14382E-1
MEAN_MOTION_DDOT = 0

CCSDS_OMM_VERS = 2.0
CREATION_DATE  = 
ORIGINATOR     = 

OBJECT_NAME    = STARLINK-36572
OBJECT_ID      = 2026-014E
CENTER_NAME    = EARTH
REF_FRAME      = TEME
TIME_SYSTEM    = UTC
MEAN_ELEMENT_THEORY = SGP/SGP4

EPOCH          = 2026-02-01T22:00:01.999584
MEAN_MOTION    = 15.86928987
ECCENTRICITY   = .00011332
INCLINATION    = 97.2823
RA_OF_ASC_NODE = 275.9714
ARG_OF_PERICENTER = 85.7480
MEAN_ANOMALY   = 309.6552

EPHEMERIS_TYPE = 0
CLASSIFICATION_TYPE = U
NORAD_CAT_ID   = 67536
ELEMENT_SET_NO = 999
REV_AT_EPOCH   = 293
BSTAR          = -.64393617E-2
MEAN_MOTION_DOT = -.1434104E-1
MEAN_MOTION_DDOT = 0

CCSDS_OMM_VERS = 2.0
CREATION_DATE  = 
ORIGINATOR     = 

OBJECT_NAME    = STARLINK-36561
OBJECT_ID      = 2026-014F
CENTER_NAME    = EARTH
REF_FRAME      = TEME
TIME_SYSTEM    = UTC
MEAN_ELEMENT_THEORY = SGP/SGP4

EPOCH          = 2026-02-01T22:00:01.999584
MEAN_MOTION    = 15.87097101
ECCENTRICITY   = .0001166
INCLINATION    = 97.2817
RA_OF_ASC_NODE = 275.9727
ARG_OF_PERICENTER = 86.7760
MEAN_ANOMALY   = 312.9422

EPHEMERIS_TYPE = 0
CLASSIFICATION_TYPE = U
NORAD_CAT_ID   = 67537
ELEMENT_SET_NO = 999
REV_AT_EPOCH   = 293
BSTAR          = -.63783671E-2
MEAN_MOTION_DOT = -.1432617E-1
MEAN_MOTION_DDOT = 0

CCSDS_OMM_VERS = 2.0
CREATION_DATE  = 
ORIGINATOR     = 

OBJECT_NAME    = STARLINK-36397
OBJECT_ID      = 2026-014G
CENTER_NAME    = EARTH
REF_FRAME      = TEME
TIME_SYSTEM    = UTC
MEAN_ELEMENT_THEORY = SGP/SGP4

EPOCH          = 2026-02-01T22:00:01.999584
MEAN_MOTION    = 15.87246469
ECCENTRICITY   = .0001217
INCLINATION    = 97.2814
RA_OF_ASC_NODE = 275.9740
ARG_OF_PERICENTER = 96.1218
MEAN_ANOMALY   = 307.4064

EPHEMERIS_TYPE = 0
CLASSIFICATION_TYPE = U
NORAD_CAT_ID   = 67538
ELEMENT_SET_NO = 999
REV_AT_EPOCH   = 293
BSTAR          = -.63366942E-2
MEAN_MOTION_DOT = -.1433695E-1
MEAN_MOTION_DDOT = 0

CCSDS_OMM_VERS = 2.0
CREATION_DATE  = 
ORIGINATOR     = 

OBJECT_NAME    = STARLINK-36573
OBJECT_ID      = 2026-014H
CENTER_NAME    = EARTH
REF_FRAME      = TEME
TIME_SYSTEM    = UTC
MEAN_ELEMENT_THEORY = SGP/SGP4

EPOCH          = 2026-02-01T22:00:01.999584
MEAN_MOTION    = 15.87434153
ECCENTRICITY   = .00011673
INCLINATION    = 97.2814
RA_OF_ASC_NODE = 275.9761
ARG_OF_PERICENTER = 96.7962
MEAN_ANOMALY   = 311.4936

EPHEMERIS_TYPE = 0
CLASSIFICATION_TYPE = U
NORAD_CAT_ID   = 67539
ELEMENT_SET_NO = 999
REV_AT_EPOCH   = 293
BSTAR          = -.62670599E-2
MEAN_MOTION_DOT = -.1431479E-1
MEAN_MOTION_DDOT = 0

CCSDS_OMM_VERS = 2.0
CREATION_DATE  = 
ORIGINATOR     = 

OBJECT_NAME    = STARLINK-36585
OBJECT_ID      = 2026-014J
CENTER_NAME    = EARTH
REF_FRAME      = TEME
TIME_SYSTEM    = UTC
MEAN_ELEMENT_THEORY = SGP/SGP4

EPOCH          = 2026-02-01T22:00:01.999584
MEAN_MOTION    = 15.87592048
ECCENTRICITY   = .00011973
INCLINATION    = 97.2809
RA_OF_ASC_NODE = 275.9773
ARG_OF_PERICENTER = 90.2684
MEAN_ANOMALY   = 322.1232

EPHEMERIS_TYPE = 0
CLASSIFICATION_TYPE = U
NORAD_CAT_ID   = 67540
ELEMENT_SET_NO = 999
REV_AT_EPOCH   = 293
BSTAR          = -.61871682E-2
MEAN_MOTION_DOT = -.1425305E-1
MEAN_MOTION_DDOT = 0

CCSDS_OMM_VERS = 2.0
CREATION_DATE  = 
ORIGINATOR     = 

OBJECT_NAME    = STARLINK-36579
OBJECT_ID      = 2026-014K
CENTER_NAME    = EARTH
REF_FRAME      = TEME
TIME_SYSTEM    = UTC
MEAN_ELEMENT_THEORY = SGP/SGP4

EPOCH          = 2026-02-01T22:00:01.999584
MEAN_MOTION    = 15.87816048
ECCENTRICITY   = .00011849
INCLINATION    = 97.2810
RA_OF_ASC_NODE = 275.9800
ARG_OF_PERICENTER = 81.1730
MEAN_ANOMALY   = 336.7097

EPHEMERIS_TYPE = 0
CLASSIFICATION_TYPE = U
NORAD_CAT_ID   = 67541
ELEMENT_SET_NO = 999
REV_AT_EPOCH   = 293
BSTAR          = -.61373415E-2
MEAN_MOTION_DOT = -.1429089E-1
MEAN_MOTION_DDOT = 0

CCSDS_OMM_VERS = 2.0
CREATION_DATE  = 
ORIGINATOR     = 

OBJECT_NAME    = STARLINK-35934
OBJECT_ID      = 2026-014L
CENTER_NAME    = EARTH
REF_FRAME      = TEME
TIME_SYSTEM    = UTC
MEAN_ELEMENT_THEORY = SGP/SGP4

EPOCH          = 2026-02-01T22:00:01.999584
MEAN_MOTION    = 15.88062859
ECCENTRICITY   = .00012617
INCLINATION    = 97.2807
RA_OF_ASC_NODE = 275.9825
ARG_OF_PERICENTER = 76.4941
MEAN_ANOMALY   = 347.4585

EPHEMERIS_TYPE = 0
CLASSIFICATION_TYPE = U
NORAD_CAT_ID   = 67542
ELEMENT_SET_NO = 999
REV_AT_EPOCH   = 292
BSTAR          = -.60514973E-2
MEAN_MOTION_DOT = -.1426945E-1
MEAN_MOTION_DDOT = 0

